{"fetched_at":"2026-03-29T16:36:15Z","count":15609,"tles":[{"name":"STARLINK-3582","line1":"1 51873U 22022X   26087.79026018  .00031293  00000+0  15239-2 0  9997","line2":"2 51873  53.2099 278.2383 0001413 232.0791 128.0078 15.18121734226076","category":"Starlink"}]}